COMMENT,ORIGINATOR,NORAD_CAT_ID,OBJECT_NAME,OBJECT_TYPE,CLASSIFICATION_TYPE,INTLDES,EPOCH,EPOCH_MICROSECONDS,MEAN_MOTION,ECCENTRICITY,INCLINATION,RA_OF_ASC_NODE,ARG_OF_PERICENTER,MEAN_ANOMALY,EPHEMERIS_TYPE,ELEMENT_SET_NO,REV_AT_EPOCH,BSTAR,MEAN_MOTION_DOT,MEAN_MOTION_DDOT,FILE,TLE_LINE0,TLE_LINE1,TLE_LINE2,OBJECT_ID,OBJECT_NUMBER,SEMIMAJOR_AXIS,PERIOD,APOGEE,PERIGEE,DECAYED
"GENERATED VIA SPACETRACK.ORG API","18 SPCS","48890","SPACEBEE-104","PAYLOAD","U","21059M","2022-11-19 13:57:48","258720","15.1943047","0.0007259","97.5727","92.8705","289.9669","70.0783","0","999","7745","0.000569","0.00012003","0","3663561","0 SPACEBEE-104","1 48890U 21059M   22323.58180855  .00012003  00000-0  56900-3 0  9997","2 48890  97.5727  92.8705 0007259 289.9669  70.0783 15.19430470 77453","2021-059M","48890","6885.698","94.772","512.561","502.564","0"
"GENERATED VIA SPACETRACK.ORG API","18 SPCS","48890","SPACEBEE-104","PAYLOAD","U","21059M","2022-11-20 08:55:47","284320","15.19449816","0.0007225","97.573","93.6631","287.0822","72.962","0","999","7757","0.00053246","0.00011233","0","3664131","0 SPACEBEE-104","1 48890U 21059M   22324.37207505  .00011233  00000-0  53246-3 0  9991","2 48890  97.5730  93.6631 0007225 287.0822  72.9620 15.19449816 77575","2021-059M","48890","6885.639","94.771","512.479","502.529","0"
"GENERATED VIA SPACETRACK.ORG API","18 SPCS","48890","SPACEBEE-104","PAYLOAD","U","21059M","2022-11-20 08:55:47","284320","15.19449816","0.0007225","97.573","93.6631","287.0822","72.962","0","999","7757","0.00053246","0.00011233","0","3664760","0 SPACEBEE-104","1 48890U 21059M   22324.37207505  .00011233  00000-0  53246-3 0  9991","2 48890  97.5730  93.6631 0007225 287.0822  72.9620 15.19449816 77575","2021-059M","48890","6885.639","94.771","512.479","502.529","0"
"GENERATED VIA SPACETRACK.ORG API","18 SPCS","48890","SPACEBEE-104","PAYLOAD","U","21059M","2022-11-20 19:59:36","358944","15.1945979","0.0007197","97.5731","94.1256","285.2872","74.7566","0","999","7764","0.00051051","0.00010769","0","3665715","0 SPACEBEE-104","1 48890U 21059M   22324.83305971  .00010769  00000-0  51051-3 0  9993","2 48890  97.5731  94.1256 0007197 285.2872  74.7566 15.19459790 77647","2021-059M","48890","6885.609","94.771","512.430","502.519","0"
"GENERATED VIA SPACETRACK.ORG API","18 SPCS","48890","SPACEBEE-104","PAYLOAD","U","21059M","2022-11-21 08:38:14","938368","15.19474314","0.0007134","97.5734","94.6539","283.1756","76.8682","0","999","7772","0.00059362","0.00012542","0","3666297","0 SPACEBEE-104","1 48890U 21059M   22325.35989512  .00012542  00000-0  59362-3 0  9994","2 48890  97.5734  94.6539 0007134 283.1756  76.8682 15.19474314 77728","2021-059M","48890","6885.565","94.770","512.342","502.518","0"
"GENERATED VIA SPACETRACK.ORG API","18 SPCS","48890","SPACEBEE-104","PAYLOAD","U","21059M","2022-11-21 19:42:03","438432","15.19482965","0.0007123","97.5735","95.1164","281.2294","78.8139","0","999","7779","0.00054727","0.00011559","0","3666658","0 SPACEBEE-104","1 48890U 21059M   22325.82087313  .00011559  00000-0  54727-3 0  9991","2 48890  97.5735  95.1164 0007123 281.2294  78.8139 15.19482965 77790","2021-059M","48890","6885.539","94.769","512.309","502.500","0"
"GENERATED VIA SPACETRACK.ORG API","18 SPCS","48890","SPACEBEE-104","PAYLOAD","U","21059M","2022-11-21 21:16:53","190336","15.19484842","0.0007119","97.5735","95.1824","281.0036","79.0398","0","999","7780","0.00055232","0.00011667","0","3666794","0 SPACEBEE-104","1 48890U 21059M   22325.88672674  .00011667  00000-0  55232-3 0  9999","2 48890  97.5735  95.1824 0007119 281.0036  79.0398 15.19484842 77808","2021-059M","48890","6885.533","94.769","512.300","502.497","0"
"GENERATED VIA SPACETRACK.ORG API","18 SPCS","48890","SPACEBEE-104","PAYLOAD","U","21059M","2022-11-22 08:20:41","337888","15.19493364","0.0007124","97.5737","95.645","279.1037","80.9391","0","999","7787","0.00045003","0.00009493","0","3667274","0 SPACEBEE-104","1 48890U 21059M   22326.34770067  .00009493  00000-0  45003-3 0  9995","2 48890  97.5737  95.6450 0007124 279.1037  80.9391 15.19493364 77875","2021-059M","48890","6885.508","94.768","512.278","502.467","0"
"GENERATED VIA SPACETRACK.ORG API","18 SPCS","48890","SPACEBEE-104","PAYLOAD","U","21059M","2022-11-22 19:24:29","250432","15.19502645","0.0007141","97.5738","96.1074","277.3507","82.6916","0","999","7794","0.00043456","0.00009166","0","3667517","0 SPACEBEE-104","1 48890U 21059M   22326.80867188  .00009166  00000-0  43456-3 0  9994","2 48890  97.5738  96.1074 0007141 277.3507  82.6916 15.19502645 77948","2021-059M","48890","6885.480","94.768","512.262","502.428","0"
"GENERATED VIA SPACETRACK.ORG API","18 SPCS","48890","SPACEBEE-104","PAYLOAD","U","21059M","2022-11-22 22:34:08","616000","15.19504935","0.0007145","97.5738","96.2396","276.8548","83.1874","0","999","7796","0.00041998","0.00008856","0","3667621","0 SPACEBEE-104","1 48890U 21059M   22326.94037750  .00008856  00000-0  41998-3 0  9997","2 48890  97.5738  96.2396 0007145 276.8548  83.1874 15.19504935 77964","2021-059M","48890","6885.473","94.768","512.257","502.418","0"
"GENERATED VIA SPACETRACK.ORG API","18 SPCS","48890","SPACEBEE-104","PAYLOAD","U","21059M","2022-11-23 08:03:06","592608","15.19512118","0.0007159","97.5739","96.6359","275.0408","85.0009","0","999","7802","0.00039191","0.00008261","0","3668134","0 SPACEBEE-104","1 48890U 21059M   22327.33549297  .00008261  00000-0  39191-3 0  9997","2 48890  97.5739  96.6359 0007159 275.0408  85.0009 15.19512118 78020","2021-059M","48890","6885.451","94.767","512.245","502.387","0"
"GENERATED VIA SPACETRACK.ORG API","18 SPCS","48890","SPACEBEE-104","PAYLOAD","U","21059M","2022-11-23 14:22:25","143168","15.19517838","0.0007191","97.5741","96.9002","274.0609","85.9803","0","999","7806","0.00044024","0.00009291","0","3668355","0 SPACEBEE-104","1 48890U 21059M   22327.59890212  .00009291  00000-0  44024-3 0  9996","2 48890  97.5741  96.9002 0007191 274.0609  85.9803 15.19517838 78068","2021-059M","48890","6885.434","94.767","512.250","502.347","0"
"GENERATED VIA SPACETRACK.ORG API","18 SPCS","48890","SPACEBEE-104","PAYLOAD","U","21059M","2022-11-24 07:45:30","803616","15.19532371","0.0007233","97.5742","97.6269","271.0667","88.9739","0","999","7817","0.00046584","0.0000984","0","3668851","0 SPACEBEE-104","1 48890U 21059M   22328.32327319  .00009840  00000-0  46584-3 0  9994","2 48890  97.5742  97.6269 0007233 271.0667  88.9739 15.19532371 78172","2021-059M","48890","6885.390","94.766","512.235","502.275","0"
"GENERATED VIA SPACETRACK.ORG API","18 SPCS","48890","SPACEBEE-104","PAYLOAD","U","21059M","2022-11-24 07:45:30","803616","15.19532371","0.0007233","97.5742","97.6269","271.0667","88.9739","0","999","7817","0.00046584","0.0000984","0","3669022","0 SPACEBEE-104","1 48890U 21059M   22328.32327319  .00009840  00000-0  46584-3 0  9994","2 48890  97.5742  97.6269 0007233 271.0667  88.9739 15.19532371 78172","2021-059M","48890","6885.390","94.766","512.235","502.275","0"
"GENERATED VIA SPACETRACK.ORG API","18 SPCS","48890","SPACEBEE-104","PAYLOAD","U","21059M","2022-11-25 07:27:53","941536","15.19551226","0.0007202","97.5746","98.6179","267.2653","92.7757","0","999","7832","0.00044772","0.0000946","0","3669850","0 SPACEBEE-104","1 48890U 21059M   22329.31104099  .00009460  00000-0  44772-3 0  9997","2 48890  97.5746  98.6179 0007202 267.2653  92.7757 15.19551226 78325","2021-059M","48890","6885.333","94.765","512.157","502.239","0"
"GENERATED VIA SPACETRACK.ORG API","18 SPCS","48890","SPACEBEE-104","PAYLOAD","U","21059M","2022-11-25 21:41:19","199616","15.19568231","0.000716","97.5748","99.2125","264.9025","95.1393","0","999","7841","0.00057116","0.00012097","0","3670249","0 SPACEBEE-104","1 48890U 21059M   22329.90369444  .00012097  00000-0  57116-3 0  9995","2 48890  97.5748  99.2125 0007160 264.9025  95.1393 15.19568231 78412","2021-059M","48890","6885.282","94.764","512.076","502.217","0"
"GENERATED VIA SPACETRACK.ORG API","18 SPCS","48890","SPACEBEE-104","PAYLOAD","U","21059M","2022-11-26 08:45:05","124096","15.19581837","0.0007118","97.575","99.675","262.8963","97.1462","0","999","7848","0.00062609","0.00013275","0","3670770","0 SPACEBEE-104","1 48890U 21059M   22330.36464264  .00013275  00000-0  62609-3 0  9995","2 48890  97.5750  99.6750 0007118 262.8963  97.1462 15.19581837 78487","2021-059M","48890","6885.240","94.763","512.006","502.205","0"
"GENERATED VIA SPACETRACK.ORG API","18 SPCS","48890","SPACEBEE-104","PAYLOAD","U","21059M","2022-11-26 19:48:50","780736","15.19590839","0.0007126","97.5749","100.1375","261.1175","98.9253","0","999","7855","0.00052645","0.00011151","0","3671048","0 SPACEBEE-104","1 48890U 21059M   22330.82558774  .00011151  00000-0  52645-3 0  9996","2 48890  97.5749 100.1375 0007126 261.1175  98.9253 15.19590839 78559","2021-059M","48890","6885.213","94.762","511.985","502.172","0"
"GENERATED VIA SPACETRACK.ORG API","18 SPCS","48890","SPACEBEE-104","PAYLOAD","U","21059M","2022-11-27 06:52:36","118560","15.19602455","0.0007109","97.575","100.5999","259.2233","100.8201","0","999","7862","0.00052093","0.00011036","0","3671446","0 SPACEBEE-104","1 48890U 21059M   22331.28652915  .00011036  00000-0  52093-3 0  9998","2 48890  97.5750 100.5999 0007109 259.2233 100.8201 15.19602455 78623","2021-059M","48890","6885.178","94.762","511.938","502.149","0"
"GENERATED VIA SPACETRACK.ORG API","18 SPCS","48890","SPACEBEE-104","PAYLOAD","U","21059M","2022-11-27 08:27:25","423776","15.19602838","0.0007106","97.5749","100.6659","258.8991","101.1444","0","999","7863","0.00045977","0.00009731","0","3671616","0 SPACEBEE-104","1 48890U 21059M   22331.35237759  .00009731  00000-0  45977-3 0  9993","2 48890  97.5749 100.6659 0007106 258.8991 101.1444 15.19602838 78637","2021-059M","48890","6885.177","94.762","511.935","502.149","0"
